[{"OBJECT_NAME":"GLOBALSTAR M097","OBJECT_ID":"2013-005A","EPOCH":"2026-03-09T15:03:50.861664","MEAN_MOTION":12.62265747,"ECCENTRICITY":8.73e-5,"INCLINATION":52.0042,"RA_OF_ASC_NODE":186.3995,"ARG_OF_PERICENTER":114.1777,"MEAN_ANOMALY":245.9181,"EPHEMERIS_TYPE":0,"CLASSIFICATION_TYPE":"U","NORAD_CAT_ID":39072,"ELEMENT_SET_NO":999,"REV_AT_EPOCH":60433,"BSTAR":0.00029056,"MEAN_MOTION_DOT":-5.2e-7,"MEAN_MOTION_DDOT":0},{"OBJECT_NAME":"COSMOS 1829","OBJECT_ID":"1987-026C","EPOCH":"2026-03-09T17:16:38.136576","MEAN_MOTION":12.62717516,"ECCENTRICITY":0.00014365,"INCLINATION":82.5696,"RA_OF_ASC_NODE":296.2276,"ARG_OF_PERICENTER":101.879,"MEAN_ANOMALY":258.2462,"EPHEMERIS_TYPE":0,"CLASSIFICATION_TYPE":"U","NORAD_CAT_ID":17584,"ELEMENT_SET_NO":999,"REV_AT_EPOCH":79685,"BSTAR":8.0969547e-5,"MEAN_MOTION_DOT":2.5e-7,"MEAN_MOTION_DDOT":0}]
